EUTELSAT 8 WEST B       
1 40875U 15039B   25210.91016973 -.00000065  00000+0  00000+0 0  9998
2 40875   0.0636   4.8512 0003664 122.7411 139.8643  1.00271183 36420
EUTELSAT 9B             
1 41310U 16005A   25211.55054486  .00000065  00000+0  00000+0 0  9998
2 41310   0.0321  65.3865 0001256  70.2314  19.9712  1.00271888 34888
EUTELSAT 65 WEST A      
1 41382U 16014A   25210.87058648 -.00000275  00000+0  00000+0 0  9999
2 41382   0.0505 351.2446 0002382 136.7791  67.9183  1.00269989 34414
EUTELSAT 117 WEST B     
1 41589U 16038B   25210.66898675 -.00000011  00000+0  00000+0 0  9991
2 41589   0.0096 189.1611 0000103 205.7277  36.5130  1.00270079 33421
EUTELSAT 172B           
1 42741U 17029B   25210.85253374 -.00000005  00000+0  00000+0 0  9998
2 42741   0.0190 150.0666 0000177 275.4982   1.0742  1.00272834 30493
EUTELSAT 7C             
1 44334U 19034B   25211.33596618  .00000050  00000+0  00000+0 0  9990
2 44334   0.0735 191.4348 0003361 281.7520 322.9533  1.00270875 22903
EUTELSAT 5 WEST B       
1 44624U 19067A   25210.90461501 -.00000041  00000+0  00000+0 0  9993
2 44624   0.1069 302.8599 0003180 185.4577 140.1430  1.00273127 21192
EUTELSAT KONNECT        
1 45027U 20005B   25211.26463917  .00000051  00000+0  00000+0 0  9998
2 45027   0.0551  93.1813 0001126 102.4356 214.9919  1.00270092 21095
